{
  "type": "FeatureCollection",
  "features": [
    {
      "type": "Feature",
      "properties": {
        "norad_id": 35744,
        "name": "IRIDIUM 33 DEB",
        "group": "iridium-33-debris",
        "lat": -50.59673992836016,
        "lon": -37.34845372749064,
        "alt_km": 668.1473397556219,
        "timestamp": "2025-12-08T23:34:04.356576+00:00",
        "meta_object_name": "IRIDIUM 33 DEB",
        "meta_object_id": "1997-051RX",
        "meta_epoch": "2025-12-07T05:20:52.292544",
        "meta_mean_motion": 14.70878971,
        "meta_eccentricity": 0.00196187,
        "meta_inclination": 86.3289,
        "meta_ra_of_asc_node": 327.9285,
        "meta_arg_of_pericenter": 212.7832,
        "meta_mean_anomaly": 147.2168,
        "meta_ephemeris_type": 0,
        "meta_classification_type": "U",
        "meta_norad_cat_id": 35744,
        "meta_element_set_no": 999,
        "meta_rev_at_epoch": 87250,
        "meta_bstar": 0.0018572793,
        "meta_mean_motion_dot": 0.00011424,
        "meta_mean_motion_ddot": 0,
        "tle_line1": "1 35744U 97051RX  25341.22282746  .00011424  00000+0  18573-2 0  9990",
        "tle_line2": "2 35744  86.3289 327.9285 0019618 212.7832 147.2168 14.70878971872500"
      },
      "geometry": {
        "type": "Point",
        "coordinates": [
          -37.34845372749064,
          -50.59673992836016
        ]
      }
    },
    {
      "type": "Feature",
      "properties": {
        "norad_id": 35797,
        "name": "IRIDIUM 33 DEB",
        "group": "iridium-33-debris",
        "lat": -58.713747673232454,
        "lon": 157.75216927349638,
        "alt_km": 626.4996520351542,
        "timestamp": "2025-12-08T23:34:04.356587+00:00",
        "meta_object_name": "IRIDIUM 33 DEB",
        "meta_object_id": "1997-051SF",
        "meta_epoch": "2025-12-07T17:20:13.337376",
        "meta_mean_motion": 14.82554733,
        "meta_eccentricity": 0.00125987,
        "meta_inclination": 86.336,
        "meta_ra_of_asc_node": 332.2775,
        "meta_arg_of_pericenter": 164.89,
        "meta_mean_anomaly": 195.2701,
        "meta_ephemeris_type": 0,
        "meta_classification_type": "U",
        "meta_norad_cat_id": 35797,
        "meta_element_set_no": 999,
        "meta_rev_at_epoch": 87266,
        "meta_bstar": 0.0031386009,
        "meta_mean_motion_dot": 0.0002535,
        "meta_mean_motion_ddot": 0,
        "tle_line1": "1 35797U 97051SF  25341.72237659  .00025350  00000+0  31386-2 0  9996",
        "tle_line2": "2 35797  86.3360 332.2775 0012598 164.8900 195.2701 14.82554733872667"
      },
      "geometry": {
        "type": "Point",
        "coordinates": [
          157.75216927349638,
          -58.713747673232454
        ]
      }
    },
    {
      "type": "Feature",
      "properties": {
        "norad_id": 35806,
        "name": "IRIDIUM 33 DEB",
        "group": "iridium-33-debris",
        "lat": 12.451572303259464,
        "lon": -158.524966324589,
        "alt_km": 701.5660963510536,
        "timestamp": "2025-12-08T23:34:04.356598+00:00",
        "meta_object_name": "IRIDIUM 33 DEB",
        "meta_object_id": "1997-051SQ",
        "meta_epoch": "2025-12-06T09:49:43.789440",
        "meta_mean_motion": 14.5725267,
        "meta_eccentricity": 0.0016158,
        "meta_inclination": 86.344,
        "meta_ra_of_asc_node": 23.4162,
        "meta_arg_of_pericenter": 94.3917,
        "meta_mean_anomaly": 265.9138,
        "meta_ephemeris_type": 0,
        "meta_classification_type": "U",
        "meta_norad_cat_id": 35806,
        "meta_element_set_no": 999,
        "meta_rev_at_epoch": 86232,
        "meta_bstar": 0.0020153904,
        "meta_mean_motion_dot": 9.149e-05,
        "meta_mean_motion_ddot": 0,
        "tle_line1": "1 35806U 97051SQ  25340.40953460  .00009149  00000+0  20154-2 0  9995",
        "tle_line2": "2 35806  86.3440  23.4162 0016158  94.3917 265.9138 14.57252670862325"
      },
      "geometry": {
        "type": "Point",
        "coordinates": [
          -158.524966324589,
          12.451572303259464
        ]
      }
    },
    {
      "type": "Feature",
      "properties": {
        "norad_id": 35809,
        "name": "IRIDIUM 33 DEB",
        "group": "iridium-33-debris",
        "lat": -75.25728070261556,
        "lon": -37.06760063616653,
        "alt_km": 644.41879095486,
        "timestamp": "2025-12-08T23:34:04.356624+00:00",
        "meta_object_name": "IRIDIUM 33 DEB",
        "meta_object_id": "1997-051ST",
        "meta_epoch": "2025-12-06T06:48:24.450912",
        "meta_mean_motion": 14.75488502,
        "meta_eccentricity": 0.00096585,
        "meta_inclination": 86.3276,
        "meta_ra_of_asc_node": 338.2877,
        "meta_arg_of_pericenter": 270.8385,
        "meta_mean_anomaly": 89.1727,
        "meta_ephemeris_type": 0,
        "meta_classification_type": "U",
        "meta_norad_cat_id": 35809,
        "meta_element_set_no": 999,
        "meta_rev_at_epoch": 86712,
        "meta_bstar": 0.0029776157,
        "meta_mean_motion_dot": 0.00020329,
        "meta_mean_motion_ddot": 0,
        "tle_line1": "1 35809U 97051ST  25340.28361633  .00020329  00000+0  29776-2 0  9991",
        "tle_line2": "2 35809  86.3276 338.2877 0009658 270.8385  89.1727 14.75488502867120"
      },
      "geometry": {
        "type": "Point",
        "coordinates": [
          -37.06760063616653,
          -75.25728070261556
        ]
      }
    },
    {
      "type": "Feature",
      "properties": {
        "norad_id": 35846,
        "name": "IRIDIUM 33 DEB",
        "group": "iridium-33-debris",
        "lat": 34.22207060473368,
        "lon": -122.02836748962329,
        "alt_km": 737.04820829051,
        "timestamp": "2025-12-08T23:34:04.356636+00:00",
        "meta_object_name": "IRIDIUM 33 DEB",
        "meta_object_id": "1997-051SW",
        "meta_epoch": "2025-11-15T14:04:07.017312",
        "meta_mean_motion": 14.42992821,
        "meta_eccentricity": 0.00163082,
        "meta_inclination": 86.3745,
        "meta_ra_of_asc_node": 70.4244,
        "meta_arg_of_pericenter": 263.1259,
        "meta_mean_anomaly": 96.8086,
        "meta_ephemeris_type": 0,
        "meta_classification_type": "U",
        "meta_norad_cat_id": 35846,
        "meta_element_set_no": 999,
        "meta_rev_at_epoch": 70937,
        "meta_bstar": 0.0011049939,
        "meta_mean_motion_dot": 3.722e-05,
        "meta_mean_motion_ddot": 0,
        "tle_line1": "1 35846U 97051SW  25319.58619233  .00003722  00000+0  11050-2 0  9997",
        "tle_line2": "2 35846  86.3745  70.4244 0016308 263.1259  96.8086 14.42992821709373"
      },
      "geometry": {
        "type": "Point",
        "coordinates": [
          -122.02836748962329,
          34.22207060473368
        ]
      }
    },
    {
      "type": "Feature",
      "properties": {
        "norad_id": 35848,
        "name": "IRIDIUM 33 DEB",
        "group": "iridium-33-debris",
        "lat": -17.256698689374062,
        "lon": -161.05597774980376,
        "alt_km": 634.1373036558571,
        "timestamp": "2025-12-08T23:34:04.356648+00:00",
        "meta_object_name": "IRIDIUM 33 DEB",
        "meta_object_id": "1997-051SY",
        "meta_epoch": "2025-12-06T20:19:25.547808",
        "meta_mean_motion": 14.78448907,
        "meta_eccentricity": 0.00071808,
        "meta_inclination": 86.3929,
        "meta_ra_of_asc_node": 18.7802,
        "meta_arg_of_pericenter": 219.4527,
        "meta_mean_anomaly": 140.6171,
        "meta_ephemeris_type": 0,
        "meta_classification_type": "U",
        "meta_norad_cat_id": 35848,
        "meta_element_set_no": 999,
        "meta_rev_at_epoch": 66603,
        "meta_bstar": 0.0027695976,
        "meta_mean_motion_dot": 0.0002026,
        "meta_mean_motion_ddot": 0,
        "tle_line1": "1 35848U 97051SY  25340.84682347  .00020260  00000+0  27696-2 0  9997",
        "tle_line2": "2 35848  86.3929  18.7802 0007180 219.4527 140.6171 14.78448907666032"
      },
      "geometry": {
        "type": "Point",
        "coordinates": [
          -161.05597774980376,
          -17.256698689374062
        ]
      }
    },
    {
      "type": "Feature",
      "properties": {
        "norad_id": 35850,
        "name": "IRIDIUM 33 DEB",
        "group": "iridium-33-debris",
        "lat": 19.987336160553543,
        "lon": 164.62456191056242,
        "alt_km": 629.1468729029857,
        "timestamp": "2025-12-08T23:34:04.356659+00:00",
        "meta_object_name": "IRIDIUM 33 DEB",
        "meta_object_id": "1997-051TA",
        "meta_epoch": "2025-12-06T07:30:15.621984",
        "meta_mean_motion": 14.78601393,
        "meta_eccentricity": 0.00083892,
        "meta_inclination": 86.3487,
        "meta_ra_of_asc_node": 347.1693,
        "meta_arg_of_pericenter": 210.267,
        "meta_mean_anomaly": 149.8067,
        "meta_ephemeris_type": 0,
        "meta_classification_type": "U",
        "meta_norad_cat_id": 35850,
        "meta_element_set_no": 999,
        "meta_rev_at_epoch": 71262,
        "meta_bstar": 0.0028291764,
        "meta_mean_motion_dot": 0.00020775,
        "meta_mean_motion_ddot": 0,
        "tle_line1": "1 35850U 97051TA  25340.31268081  .00020775  00000+0  28292-2 0  9991",
        "tle_line2": "2 35850  86.3487 347.1693 0008389 210.2670 149.8067 14.78601393712623"
      },
      "geometry": {
        "type": "Point",
        "coordinates": [
          164.62456191056242,
          19.987336160553543
        ]
      }
    }
  ]
}